STARLINK-32730          
1 62447U 24251R   26080.52769216  .00033427  00000+0  11348-2 0  9998
2 62447  53.1580 280.1150 0001845  86.2121 273.9091 15.30222809 69763
STARLINK-32719          
1 62448U 24251S   26079.93678837  .00014682  00000+0  50675-3 0  9999
2 62448  53.1572 283.3936 0001310  92.9126 267.2025 15.30207197 69494
STARLINK-32723          
1 62449U 24251T   26080.53718423  .00033490  00000+0  11369-2 0  9998
2 62449  53.1591 280.1768 0001934  81.5135 278.6085 15.30224747 69605
STARLINK-32722          
1 62450U 24251U   26080.27065638  .00041903  00000+0  14180-2 0  9996
2 62450  53.1598 281.3532 0001016  92.1443 267.9674 15.30221026 69351
STARLINK-32720          
1 62451U 24251V   26080.62785022  .00049805  00000+0  16794-2 0  9994
2 62451  53.1592 280.0373 0001530 108.4492 251.6676 15.30259616 69405
STARLINK-32656          
1 62452U 24251W   26080.57729187  .00029910  00000+0  10170-2 0  9996
2 62452  53.1574 280.4247 0002045  87.0357 273.0878 15.30229131 69607
STARLINK-32690          
1 62453U 24251X   26079.87561128  .00010155  00000+0  35459-3 0  9996
2 62453  53.1583 283.1584 0001139  95.0694 265.0437 15.30193059 69283
STARLINK-11518 [DTC]    
1 62462U 24254A   26080.49564982  .00319601  00000+0  23801-2 0  9995
2 62462  42.9993 152.2114 0002276 250.2656 109.7966 15.71035137 71264
STARLINK-11455 [DTC]    
1 62463U 24254B   26080.56453070  .00022835  00000+0  18060-3 0  9991
2 62463  42.9997 151.8710 0001834 295.6692  64.3986 15.70887421 71266
STARLINK-11178 [DTC]    
1 62465U 24254D   26080.61219337  .00214745  00000+0  16262-2 0  9999
2 62465  42.9992 151.3583 0001279 298.0113  62.0625 15.70956727 71119
STARLINK-11506 [DTC]    
1 62466U 24254E   26080.25173876 -.00024676  00000+0 -18940-3 0  9997
2 62466  42.9996 152.9296 0002800 268.1785  91.8762 15.70831039 71060
STARLINK-11486 [DTC]    
1 62467U 24254F   26080.55392103  .00084180  00000+0  65143-3 0  9998
2 62467  42.9993 151.7829 0001236 261.1153  98.9575 15.70894122 71265
STARLINK-11511 [DTC]    
1 62468U 24254G   26080.59625169  .00254898  00000+0  19087-2 0  9994
2 62468  43.0042 151.2306 0006113 266.2814  93.7355 15.71085719 71272
STARLINK-11505 [DTC]    
1 62469U 24254H   26080.58564444  .00328429  00000+0  24323-2 0  9993
2 62469  42.9993 151.1435 0003303 267.2446  92.8044 15.71140219 71269
STARLINK-11497 [DTC]    
1 62470U 24254J   26080.60155999  .00241790  00000+0  18126-2 0  9998
2 62470  43.0037 151.2737 0006414 270.8496  89.1637 15.71096256 71278
STARLINK-11477 [DTC]    
1 62471U 24254K   26080.51815381  .00286466  00000+0  19814-2 0  9991
2 62471  42.9970 151.4922 0000125 209.3254 150.7608 15.72879137 71252
