[{"OBJECT_NAME":"STARLINK-32730","OBJECT_ID":"2024-251R","EPOCH":"2026-03-21T12:39:52.602624","MEAN_MOTION":15.30222809,"ECCENTRICITY":0.0001845,"INCLINATION":53.158,"RA_OF_ASC_NODE":280.115,"ARG_OF_PERICENTER":86.2121,"MEAN_ANOMALY":273.9091,"EPHEMERIS_TYPE":0,"CLASSIFICATION_TYPE":"U","NORAD_CAT_ID":62447,"ELEMENT_SET_NO":999,"REV_AT_EPOCH":6976,"BSTAR":0.0011348401,"MEAN_MOTION_DOT":0.00033427,"MEAN_MOTION_DDOT":0},{"OBJECT_NAME":"STARLINK-32719","OBJECT_ID":"2024-251S","EPOCH":"2026-03-20T22:28:58.515168","MEAN_MOTION":15.30207197,"ECCENTRICITY":0.00013101,"INCLINATION":53.1572,"RA_OF_ASC_NODE":283.3936,"ARG_OF_PERICENTER":92.9126,"MEAN_ANOMALY":267.2025,"EPHEMERIS_TYPE":0,"CLASSIFICATION_TYPE":"U","NORAD_CAT_ID":62448,"ELEMENT_SET_NO":999,"REV_AT_EPOCH":6949,"BSTAR":0.00050674822,"MEAN_MOTION_DOT":0.00014682,"MEAN_MOTION_DDOT":0},{"OBJECT_NAME":"STARLINK-32723","OBJECT_ID":"2024-251T","EPOCH":"2026-03-21T12:53:32.717472","MEAN_MOTION":15.30224747,"ECCENTRICITY":0.00019347,"INCLINATION":53.1591,"RA_OF_ASC_NODE":280.1768,"ARG_OF_PERICENTER":81.5135,"MEAN_ANOMALY":278.6085,"EPHEMERIS_TYPE":0,"CLASSIFICATION_TYPE":"U","NORAD_CAT_ID":62449,"ELEMENT_SET_NO":999,"REV_AT_EPOCH":6960,"BSTAR":0.0011368806,"MEAN_MOTION_DOT":0.0003349,"MEAN_MOTION_DDOT":0},{"OBJECT_NAME":"STARLINK-32722","OBJECT_ID":"2024-251U","EPOCH":"2026-03-21T06:29:44.711232","MEAN_MOTION":15.30221026,"ECCENTRICITY":0.0001016,"INCLINATION":53.1598,"RA_OF_ASC_NODE":281.3532,"ARG_OF_PERICENTER":92.1443,"MEAN_ANOMALY":267.9674,"EPHEMERIS_TYPE":0,"CLASSIFICATION_TYPE":"U","NORAD_CAT_ID":62450,"ELEMENT_SET_NO":999,"REV_AT_EPOCH":6935,"BSTAR":0.0014180099,"MEAN_MOTION_DOT":0.00041903,"MEAN_MOTION_DDOT":0},{"OBJECT_NAME":"STARLINK-32720","OBJECT_ID":"2024-251V","EPOCH":"2026-03-21T15:04:06.259008","MEAN_MOTION":15.30259616,"ECCENTRICITY":0.00015301,"INCLINATION":53.1592,"RA_OF_ASC_NODE":280.0373,"ARG_OF_PERICENTER":108.4492,"MEAN_ANOMALY":251.6676,"EPHEMERIS_TYPE":0,"CLASSIFICATION_TYPE":"U","NORAD_CAT_ID":62451,"ELEMENT_SET_NO":999,"REV_AT_EPOCH":6940,"BSTAR":0.0016793741,"MEAN_MOTION_DOT":0.00049805,"MEAN_MOTION_DDOT":0},{"OBJECT_NAME":"STARLINK-32656","OBJECT_ID":"2024-251W","EPOCH":"2026-03-21T13:51:18.017568","MEAN_MOTION":15.30229131,"ECCENTRICITY":0.00020458,"INCLINATION":53.1574,"RA_OF_ASC_NODE":280.4247,"ARG_OF_PERICENTER":87.0357,"MEAN_ANOMALY":273.0878,"EPHEMERIS_TYPE":0,"CLASSIFICATION_TYPE":"U","NORAD_CAT_ID":62452,"ELEMENT_SET_NO":999,"REV_AT_EPOCH":6960,"BSTAR":0.0010169944,"MEAN_MOTION_DOT":0.0002991,"MEAN_MOTION_DDOT":0},{"OBJECT_NAME":"STARLINK-32690","OBJECT_ID":"2024-251X","EPOCH":"2026-03-20T21:00:52.814592","MEAN_MOTION":15.30193059,"ECCENTRICITY":0.00011395,"INCLINATION":53.1583,"RA_OF_ASC_NODE":283.1584,"ARG_OF_PERICENTER":95.0694,"MEAN_ANOMALY":265.0437,"EPHEMERIS_TYPE":0,"CLASSIFICATION_TYPE":"U","NORAD_CAT_ID":62453,"ELEMENT_SET_NO":999,"REV_AT_EPOCH":6928,"BSTAR":0.00035459214,"MEAN_MOTION_DOT":0.00010155,"MEAN_MOTION_DDOT":0},{"OBJECT_NAME":"STARLINK-11518 [DTC]","OBJECT_ID":"2024-254A","EPOCH":"2026-03-21T11:53:44.144448","MEAN_MOTION":15.71035137,"ECCENTRICITY":0.00022763,"INCLINATION":42.9993,"RA_OF_ASC_NODE":152.2114,"ARG_OF_PERICENTER":250.2656,"MEAN_ANOMALY":109.7966,"EPHEMERIS_TYPE":0,"CLASSIFICATION_TYPE":"U","NORAD_CAT_ID":62462,"ELEMENT_SET_NO":999,"REV_AT_EPOCH":7126,"BSTAR":0.0023801074,"MEAN_MOTION_DOT":0.00319601,"MEAN_MOTION_DDOT":0},{"OBJECT_NAME":"STARLINK-11455 [DTC]","OBJECT_ID":"2024-254B","EPOCH":"2026-03-21T13:32:55.452480","MEAN_MOTION":15.70887421,"ECCENTRICITY":0.00018348,"INCLINATION":42.9997,"RA_OF_ASC_NODE":151.871,"ARG_OF_PERICENTER":295.6692,"MEAN_ANOMALY":64.3986,"EPHEMERIS_TYPE":0,"CLASSIFICATION_TYPE":"U","NORAD_CAT_ID":62463,"ELEMENT_SET_NO":999,"REV_AT_EPOCH":7126,"BSTAR":0.00018060248,"MEAN_MOTION_DOT":0.00022835,"MEAN_MOTION_DDOT":0},{"OBJECT_NAME":"STARLINK-11178 [DTC]","OBJECT_ID":"2024-254D","EPOCH":"2026-03-21T14:41:33.507168","MEAN_MOTION":15.70956727,"ECCENTRICITY":0.00012797,"INCLINATION":42.9992,"RA_OF_ASC_NODE":151.3583,"ARG_OF_PERICENTER":298.0113,"MEAN_ANOMALY":62.0625,"EPHEMERIS_TYPE":0,"CLASSIFICATION_TYPE":"U","NORAD_CAT_ID":62465,"ELEMENT_SET_NO":999,"REV_AT_EPOCH":7111,"BSTAR":0.0016261982,"MEAN_MOTION_DOT":0.00214745,"MEAN_MOTION_DDOT":0},{"OBJECT_NAME":"STARLINK-11506 [DTC]","OBJECT_ID":"2024-254E","EPOCH":"2026-03-21T06:02:30.228864","MEAN_MOTION":15.70831039,"ECCENTRICITY":0.00028006,"INCLINATION":42.9996,"RA_OF_ASC_NODE":152.9296,"ARG_OF_PERICENTER":268.1785,"MEAN_ANOMALY":91.8762,"EPHEMERIS_TYPE":0,"CLASSIFICATION_TYPE":"U","NORAD_CAT_ID":62466,"ELEMENT_SET_NO":999,"REV_AT_EPOCH":7106,"BSTAR":-0.00018940492,"MEAN_MOTION_DOT":-0.00024676,"MEAN_MOTION_DDOT":0},{"OBJECT_NAME":"STARLINK-11486 [DTC]","OBJECT_ID":"2024-254F","EPOCH":"2026-03-21T13:17:38.776992","MEAN_MOTION":15.70894122,"ECCENTRICITY":0.00012367,"INCLINATION":42.9993,"RA_OF_ASC_NODE":151.7829,"ARG_OF_PERICENTER":261.1153,"MEAN_ANOMALY":98.9575,"EPHEMERIS_TYPE":0,"CLASSIFICATION_TYPE":"U","NORAD_CAT_ID":62467,"ELEMENT_SET_NO":999,"REV_AT_EPOCH":7126,"BSTAR":0.00065142801,"MEAN_MOTION_DOT":0.0008418,"MEAN_MOTION_DDOT":0},{"OBJECT_NAME":"STARLINK-11511 [DTC]","OBJECT_ID":"2024-254G","EPOCH":"2026-03-21T14:18:36.146016","MEAN_MOTION":15.71085719,"ECCENTRICITY":0.00061133,"INCLINATION":43.0042,"RA_OF_ASC_NODE":151.2306,"ARG_OF_PERICENTER":266.2814,"MEAN_ANOMALY":93.7355,"EPHEMERIS_TYPE":0,"CLASSIFICATION_TYPE":"U","NORAD_CAT_ID":62468,"ELEMENT_SET_NO":999,"REV_AT_EPOCH":7127,"BSTAR":0.0019086513,"MEAN_MOTION_DOT":0.00254898,"MEAN_MOTION_DDOT":0},{"OBJECT_NAME":"STARLINK-11505 [DTC]","OBJECT_ID":"2024-254H","EPOCH":"2026-03-21T14:03:19.679616","MEAN_MOTION":15.71140219,"ECCENTRICITY":0.00033039,"INCLINATION":42.9993,"RA_OF_ASC_NODE":151.1435,"ARG_OF_PERICENTER":267.2446,"MEAN_ANOMALY":92.8044,"EPHEMERIS_TYPE":0,"CLASSIFICATION_TYPE":"U","NORAD_CAT_ID":62469,"ELEMENT_SET_NO":999,"REV_AT_EPOCH":7126,"BSTAR":0.002432254,"MEAN_MOTION_DOT":0.00328429,"MEAN_MOTION_DDOT":0},{"OBJECT_NAME":"STARLINK-11497 [DTC]","OBJECT_ID":"2024-254J","EPOCH":"2026-03-21T14:26:14.783136","MEAN_MOTION":15.71096256,"ECCENTRICITY":0.00064145,"INCLINATION":43.0037,"RA_OF_ASC_NODE":151.2737,"ARG_OF_PERICENTER":270.8496,"MEAN_ANOMALY":89.1637,"EPHEMERIS_TYPE":0,"CLASSIFICATION_TYPE":"U","NORAD_CAT_ID":62470,"ELEMENT_SET_NO":999,"REV_AT_EPOCH":7127,"BSTAR":0.0018125587,"MEAN_MOTION_DOT":0.0024179,"MEAN_MOTION_DDOT":0},{"OBJECT_NAME":"STARLINK-11477 [DTC]","OBJECT_ID":"2024-254K","EPOCH":"2026-03-21T12:26:08.489184","MEAN_MOTION":15.72879137,"ECCENTRICITY":1.254e-5,"INCLINATION":42.997,"RA_OF_ASC_NODE":151.4922,"ARG_OF_PERICENTER":209.3254,"MEAN_ANOMALY":150.7608,"EPHEMERIS_TYPE":0,"CLASSIFICATION_TYPE":"U","NORAD_CAT_ID":62471,"ELEMENT_SET_NO":999,"REV_AT_EPOCH":7125,"BSTAR":0.0019813588,"MEAN_MOTION_DOT":0.00286466,"MEAN_MOTION_DDOT":0}]
